*******************************************************************************
Ephemeris / WWW_USER Tue Aug  5 12:01:06 2025 Pasadena, USA      / Horizons    
*******************************************************************************
Target body name: Titan (606)                     {source: sat441l}
Center body name: Earth (399)                     {source: DE441}
Center-site name: Mauna Kea
*******************************************************************************
Start time      : A.D. 2018-Aug-04 05:07:00.0000 UT      
Stop  time      : A.D. 2018-Aug-04 15:49:00.0000 UT      
Step-size       : 1 minutes
*******************************************************************************
Target pole/equ : IAU_TITAN                       {West-longitude positive}
Target radii    : 2575.15, 2574.78, 2574.47 km    {Equator_a, b, pole_c}       
Center geodetic : 204.5278, 19.8260847, 4.21024   {E-lon(deg),Lat(deg),Alt(km)}
Center cylindric: 204.5278, 6006.35451, 2151.0229 {E-lon(deg),Dxy(km),Dz(km)}
Center pole/equ : ITRF93                          {East-longitude positive}
Center radii    : 6378.137, 6378.137, 6356.752 km {Equator_a, b, pole_c}       
Target primary  : Saturn
Vis. interferer : MOON (R_eq= 1737.400) km        {source: DE441}
Rel. light bend : Sun                             {source: DE441}
Rel. lght bnd GM: 1.3271E+11 km^3/s^2                                          
Atmos refraction: NO (AIRLESS)
RA format       : HMS
Time format     : CAL 
Calendar mode   : Mixed Julian/Gregorian
RTS-only print  : NO       
EOP file        : eop.250804.p251031                                           
EOP coverage    : DATA-BASED 1962-JAN-20 TO 2025-AUG-04. PREDICTS-> 2025-OCT-30
Units conversion: 1 au= 149597870.700 km, c= 299792.458 km/s, 1 day= 86400.0 s 
Table cut-offs 1: Elevation (-90.0deg=NO ),Airmass (>38.000=NO), Daylight (YES)
Table cut-offs 2: Solar elongation (  0.0,180.0=NO ),Local Hour Angle( 0.0=NO )
Table cut-offs 3: RA/DEC angular rate (     0.0=NO )                           
*******************************************************************************
 Date__(UT)__HR:MN     R.A._________(ICRF)_________DEC
******************************************************
$$SOE
 2018-Aug-04 12:10  m  18 13 35.270683 -22 38 26.92718
 2018-Aug-04 12:11  m  18 13 35.258332 -22 38 26.93662
 2018-Aug-04 12:12  m  18 13 35.245983 -22 38 26.94605
 2018-Aug-04 12:13  m  18 13 35.233634 -22 38 26.95547
 2018-Aug-04 12:14  m  18 13 35.221287 -22 38 26.96489
 2018-Aug-04 12:15  m  18 13 35.208940 -22 38 26.97429
 2018-Aug-04 12:16  m  18 13 35.196595 -22 38 26.98368
 2018-Aug-04 12:17  m  18 13 35.184250 -22 38 26.99307
 2018-Aug-04 12:18  m  18 13 35.171907 -22 38 27.00245
 2018-Aug-04 12:19  m  18 13 35.159565 -22 38 27.01182
 2018-Aug-04 12:20  m  18 13 35.147224 -22 38 27.02118
 2018-Aug-04 12:21  m  18 13 35.134883 -22 38 27.03053
 2018-Aug-04 12:22  m  18 13 35.122544 -22 38 27.03988
 2018-Aug-04 12:23  m  18 13 35.110206 -22 38 27.04921
 2018-Aug-04 12:24  m  18 13 35.097869 -22 38 27.05854
 2018-Aug-04 12:25  m  18 13 35.085533 -22 38 27.06786
 2018-Aug-04 12:26  m  18 13 35.073199 -22 38 27.07717
 2018-Aug-04 12:27  m  18 13 35.060865 -22 38 27.08647
 2018-Aug-04 12:28  m  18 13 35.048532 -22 38 27.09576
 2018-Aug-04 12:29  m  18 13 35.036201 -22 38 27.10505
 2018-Aug-04 12:30  m  18 13 35.023870 -22 38 27.11432
 2018-Aug-04 12:31  m  18 13 35.011541 -22 38 27.12359
 2018-Aug-04 12:32  m  18 13 34.999212 -22 38 27.13285
 2018-Aug-04 12:33  m  18 13 34.986885 -22 38 27.14211
 2018-Aug-04 12:34  m  18 13 34.974559 -22 38 27.15135
 2018-Aug-04 12:35  m  18 13 34.962234 -22 38 27.16059
 2018-Aug-04 12:36  m  18 13 34.949910 -22 38 27.16981
 2018-Aug-04 12:37  m  18 13 34.937587 -22 38 27.17903
 2018-Aug-04 12:38  m  18 13 34.925265 -22 38 27.18825
 2018-Aug-04 12:39  m  18 13 34.912944 -22 38 27.19745
 2018-Aug-04 12:40  m  18 13 34.900624 -22 38 27.20665
 2018-Aug-04 12:41  m  18 13 34.888306 -22 38 27.21583
 2018-Aug-04 12:42  m  18 13 34.875988 -22 38 27.22501
 2018-Aug-04 12:43  m  18 13 34.863672 -22 38 27.23418
 2018-Aug-04 12:44  m  18 13 34.851357 -22 38 27.24335
 2018-Aug-04 12:45  m  18 13 34.839043 -22 38 27.25250
 2018-Aug-04 12:46  m  18 13 34.826729 -22 38 27.26165
 2018-Aug-04 12:47  m  18 13 34.814418 -22 38 27.27079
 2018-Aug-04 12:48  m  18 13 34.802107 -22 38 27.27993
 2018-Aug-04 12:49  m  18 13 34.789797 -22 38 27.28905
 2018-Aug-04 12:50  m  18 13 34.777488 -22 38 27.29817
 2018-Aug-04 12:51  m  18 13 34.765181 -22 38 27.30728
 2018-Aug-04 12:52  m  18 13 34.752875 -22 38 27.31638
 2018-Aug-04 12:53  m  18 13 34.740569 -22 38 27.32547
 2018-Aug-04 12:54  m  18 13 34.728265 -22 38 27.33456
 2018-Aug-04 12:55  m  18 13 34.715962 -22 38 27.34364
 2018-Aug-04 12:56  m  18 13 34.703660 -22 38 27.35271
 2018-Aug-04 12:57  m  18 13 34.691359 -22 38 27.36178
 2018-Aug-04 12:58  m  18 13 34.679060 -22 38 27.37083
 2018-Aug-04 12:59  m  18 13 34.666761 -22 38 27.37988
 2018-Aug-04 13:00  m  18 13 34.654464 -22 38 27.38892
 2018-Aug-04 13:01  m  18 13 34.642168 -22 38 27.39796
 2018-Aug-04 13:02  m  18 13 34.629872 -22 38 27.40698
 2018-Aug-04 13:03  m  18 13 34.617578 -22 38 27.41600
 2018-Aug-04 13:04  m  18 13 34.605286 -22 38 27.42502
 2018-Aug-04 13:05  m  18 13 34.592994 -22 38 27.43402
 2018-Aug-04 13:06  m  18 13 34.580703 -22 38 27.44302
 2018-Aug-04 13:07  m  18 13 34.568414 -22 38 27.45201
 2018-Aug-04 13:08  m  18 13 34.556125 -22 38 27.46099
 2018-Aug-04 13:09  m  18 13 34.543838 -22 38 27.46997
 2018-Aug-04 13:10  m  18 13 34.531552 -22 38 27.47894
 2018-Aug-04 13:11  m  18 13 34.519267 -22 38 27.48790
 2018-Aug-04 13:12  m  18 13 34.506983 -22 38 27.49685
 2018-Aug-04 13:13  m  18 13 34.494701 -22 38 27.50580
 2018-Aug-04 13:14  m  18 13 34.482419 -22 38 27.51474
 2018-Aug-04 13:15  m  18 13 34.470139 -22 38 27.52367
 2018-Aug-04 13:16  m  18 13 34.457860 -22 38 27.53260
 2018-Aug-04 13:17  m  18 13 34.445582 -22 38 27.54152
 2018-Aug-04 13:18  m  18 13 34.433305 -22 38 27.55043
 2018-Aug-04 13:19  m  18 13 34.421029 -22 38 27.55934
 2018-Aug-04 13:20  m  18 13 34.408754 -22 38 27.56824
 2018-Aug-04 13:21  m  18 13 34.396481 -22 38 27.57713
 2018-Aug-04 13:22  m  18 13 34.384209 -22 38 27.58601
 2018-Aug-04 13:23  s  18 13 34.371937 -22 38 27.59489
 2018-Aug-04 13:24  m  18 13 34.359667 -22 38 27.60376
 2018-Aug-04 13:25  m  18 13 34.347398 -22 38 27.61263
 2018-Aug-04 13:26  m  18 13 34.335131 -22 38 27.62149
 2018-Aug-04 13:27  m  18 13 34.322864 -22 38 27.63034
 2018-Aug-04 13:28  m  18 13 34.310599 -22 38 27.63918
 2018-Aug-04 13:29  m  18 13 34.298335 -22 38 27.64802
 2018-Aug-04 13:30  m  18 13 34.286071 -22 38 27.65685
 2018-Aug-04 13:31  m  18 13 34.273810 -22 38 27.66568
 2018-Aug-04 13:32  m  18 13 34.261549 -22 38 27.67450
 2018-Aug-04 13:33  m  18 13 34.249289 -22 38 27.68331
 2018-Aug-04 13:34  m  18 13 34.237031 -22 38 27.69212
 2018-Aug-04 13:35  m  18 13 34.224773 -22 38 27.70091
 2018-Aug-04 13:36  m  18 13 34.212517 -22 38 27.70971
 2018-Aug-04 13:37  m  18 13 34.200262 -22 38 27.71849
 2018-Aug-04 13:38  m  18 13 34.188008 -22 38 27.72727
 2018-Aug-04 13:39  m  18 13 34.175756 -22 38 27.73605
 2018-Aug-04 13:40  m  18 13 34.163504 -22 38 27.74482
 2018-Aug-04 13:41  m  18 13 34.151254 -22 38 27.75358
 2018-Aug-04 13:42  m  18 13 34.139005 -22 38 27.76233
 2018-Aug-04 13:43  m  18 13 34.126757 -22 38 27.77108
 2018-Aug-04 13:44  m  18 13 34.114510 -22 38 27.77982
 2018-Aug-04 13:45  m  18 13 34.102264 -22 38 27.78856
 2018-Aug-04 13:46  m  18 13 34.090020 -22 38 27.79729
 2018-Aug-04 13:47  m  18 13 34.077776 -22 38 27.80601
 2018-Aug-04 13:48  m  18 13 34.065534 -22 38 27.81473
 2018-Aug-04 13:49  m  18 13 34.053293 -22 38 27.82345
 2018-Aug-04 13:50  m  18 13 34.041053 -22 38 27.83215
 2018-Aug-04 13:51  m  18 13 34.028815 -22 38 27.84085
 2018-Aug-04 13:52  m  18 13 34.016577 -22 38 27.84955
 2018-Aug-04 13:53  m  18 13 34.004341 -22 38 27.85823
 2018-Aug-04 13:54  m  18 13 33.992106 -22 38 27.86692
 2018-Aug-04 13:55  m  18 13 33.979871 -22 38 27.87559
 2018-Aug-04 13:56  m  18 13 33.967639 -22 38 27.88426
 2018-Aug-04 13:57  m  18 13 33.955407 -22 38 27.89293
 2018-Aug-04 13:58  m  18 13 33.943176 -22 38 27.90159
 2018-Aug-04 13:59  m  18 13 33.930947 -22 38 27.91024
 2018-Aug-04 14:00  m  18 13 33.918719 -22 38 27.91889
 2018-Aug-04 14:01  m  18 13 33.906492 -22 38 27.92753
 2018-Aug-04 14:02  m  18 13 33.894266 -22 38 27.93617
 2018-Aug-04 14:03  m  18 13 33.882041 -22 38 27.94480
 2018-Aug-04 14:04  m  18 13 33.869817 -22 38 27.95343
 2018-Aug-04 14:05  m  18 13 33.857595 -22 38 27.96204
 2018-Aug-04 14:06  m  18 13 33.845374 -22 38 27.97066
 2018-Aug-04 14:07  m  18 13 33.833154 -22 38 27.97927
 2018-Aug-04 14:08  m  18 13 33.820935 -22 38 27.98787
 2018-Aug-04 14:09  m  18 13 33.808717 -22 38 27.99647
 2018-Aug-04 14:10  m  18 13 33.796501 -22 38 28.00506
 2018-Aug-04 14:11  m  18 13 33.784285 -22 38 28.01365
 2018-Aug-04 14:12  m  18 13 33.772071 -22 38 28.02223
 2018-Aug-04 14:13  m  18 13 33.759858 -22 38 28.03081
 2018-Aug-04 14:14  m  18 13 33.747646 -22 38 28.03938
 2018-Aug-04 14:15  m  18 13 33.735435 -22 38 28.04794
 2018-Aug-04 14:16  m  18 13 33.723225 -22 38 28.05650
 2018-Aug-04 14:17  m  18 13 33.711017 -22 38 28.06506
 2018-Aug-04 14:18  m  18 13 33.698810 -22 38 28.07361
 2018-Aug-04 14:19  m  18 13 33.686603 -22 38 28.08215
 2018-Aug-04 14:20  m  18 13 33.674398 -22 38 28.09069
 2018-Aug-04 14:21  m  18 13 33.662195 -22 38 28.09923
 2018-Aug-04 14:22  m  18 13 33.649992 -22 38 28.10776
 2018-Aug-04 14:23  m  18 13 33.637790 -22 38 28.11628
 2018-Aug-04 14:24  m  18 13 33.625590 -22 38 28.12480
 2018-Aug-04 14:25  m  18 13 33.613391 -22 38 28.13331
 2018-Aug-04 14:26  m  18 13 33.601193 -22 38 28.14182
 2018-Aug-04 14:27  m  18 13 33.588996 -22 38 28.15033
 2018-Aug-04 14:28  m  18 13 33.576800 -22 38 28.15883
 2018-Aug-04 14:29  m  18 13 33.564606 -22 38 28.16732
 2018-Aug-04 14:30  m  18 13 33.552412 -22 38 28.17581
